NORAD_CAT_ID,OBJECT_NAME,OBJECT_TYPE,EPOCH,MEAN_MOTION,ECCENTRICITY,INCLINATION,RA_OF_ASC_NODE,ARG_OF_PERICENTER,MEAN_ANOMALY,BSTAR,MEAN_MOTION_DOT,MEAN_MOTION_DDOT,TLE_LINE0,TLE_LINE1,TLE_LINE2,SEMIMAJOR_AXIS,PERIOD,APOGEE,PERIGEE,DECAYED
52633.0,STARLINK-3994,PAYLOAD,2022-10-19 09:34:25,15.08833446,0.0001757,53.2197,63.5238,47.9159,312.1982,9.4091e-05,1.209e-05,0.0,0 STARLINK-3994,1 52633U 22052AM  22292.39890480  .00001209  00000-0  94091-4 0  9997,2 52633  53.2197  63.5238 0001757  47.9159 312.1982 15.08833446 24587,6917.9,95.438,540.981,538.55,0.0
52633.0,STARLINK-3994,PAYLOAD,2022-10-20 09:25:12,15.08834225,0.0001874,53.2228,59.0626,39.6862,320.4267,0.00011279,1.507e-05,0.0,0 STARLINK-3994,1 52633U 22052AM  22293.39250508  .00001507  00000-0  11279-3 0  9996,2 52633  53.2228  59.0626 0001874  39.6862 320.4267 15.08834225 24362,6917.898,95.438,541.059,538.467,0.0
52633.0,STARLINK-3994,PAYLOAD,2022-10-20 17:22:07,15.08841099,0.0001855999999999,53.2221,57.5765,42.994,317.1197,0.00016169,2.286e-05,0.0,0 STARLINK-3994,1 52633U 22052AM  22293.72369977  .00002286  00000-0  16169-3 0  9992,2 52633  53.2221  57.5765 0001856  42.9940 317.1197 15.08841099 24784,6917.877,95.437,541.026,538.4580000000002,0.0
52633.0,STARLINK-3994,PAYLOAD,2022-10-21 01:19:03,15.08838651,0.0001802,53.2206,56.0908,46.325,313.7891,6.907e-05,8.11e-06,0.0,0 STARLINK-3994,1 52633U 22052AM  22294.05490411  .00000811  00000-0  69070-4 0  9999,2 52633  53.2206  56.0908 0001802  46.3250 313.7891 15.08838651 24461,6917.885,95.438,540.996,538.503,0.0
52633.0,STARLINK-3994,PAYLOAD,2022-10-21 17:12:54,15.08824819,0.0002013,53.2204,53.1139,42.5359,317.5789,0.00039773,6.045e-05,0.0,0 STARLINK-3994,1 52633U 22052AM  22294.71730224  .00006045  00000-0  39773-3 0  9992,2 52633  53.2204  53.1139 0002013  42.5359 317.5789 15.08824819 24566,6917.927,95.439,541.184,538.399,0.0
52633.0,STARLINK-3994,PAYLOAD,2022-10-22 07:31:23,15.08841341,0.0001848,53.2177,50.4404,54.6022,305.5142,-1.1557e-05,-4.72e-06,0.0,0 STARLINK-3994,1 52633U 22052AM  22295.31346207 -.00000472  00000-0 -11557-4 0  9994,2 52633  53.2177  50.4404 0001848  54.6022 305.5142 15.08841341 25027,6917.876,95.437,541.02,538.4630000000002,0.0
52633.0,STARLINK-3994,PAYLOAD,2022-10-22 12:17:32,15.08839971,0.0001781999999999,53.2193,49.549,43.6431,316.4701,-7.447399999999999e-05,-1.473e-05,0.0,0 STARLINK-3994,1 52633U 22052AM  22295.51218538 -.00001473  00000-0 -74474-4 0  9990,2 52633  53.2193  49.5490 0001782  43.6431 316.4701 15.08839971 24687,6917.88,95.438,540.9780000000002,538.513,0.0
52633.0,STARLINK-3994,PAYLOAD,2022-10-22 17:03:41,15.08841923,0.0001818,53.2201,48.6566,51.2302,308.8852,-2.0318e-05,-6.11e-06,0.0,0 STARLINK-3994,1 52633U 22052AM  22295.71090167 -.00000611  00000-0 -20318-4 0  9999,2 52633  53.2201  48.6566 0001818  51.2302 308.8852 15.08841923 24719,6917.875,95.437,540.997,538.482,0.0
52633.0,STARLINK-3994,PAYLOAD,2022-10-23 01:00:36,15.08849556,0.0001753,53.2208,47.1694,44.1885,315.9247,7.6212e-05,9.25e-06,0.0,0 STARLINK-3994,1 52633U 22052AM  22296.04209189  .00000925  00000-0  76212-4 0  9992,2 52633  53.2208  47.1694 0001753  44.1885 315.9247 15.08849556 25131,6917.851,95.437,540.929,538.503,0.0
52633.0,STARLINK-3994,PAYLOAD,2022-10-23 13:43:41,15.08850255,0.0001779,53.221,44.7914,44.7921,315.3215,3.6954e-05,3e-06,0.0,0 STARLINK-3994,1 52633U 22052AM  22296.57201056  .00000300  00000-0  36954-4 0  9991,2 52633  53.2210  44.7914 0001779  44.7921 315.3215 15.08850255 24841,6917.849,95.437,540.945,538.4830000000002,0.0
52633.0,STARLINK-3994,PAYLOAD,2022-10-23 16:54:27,15.08847344,0.0001843,53.2206,44.1967,48.8339,311.2812,0.00013276,1.826e-05,0.0,0 STARLINK-3994,1 52633U 22052AM  22296.70448799  .00001826  00000-0  13276-3 0  9998,2 52633  53.2206  44.1967 0001843  48.8339 311.2812 15.08847344 24863,6917.858,95.437,540.998,538.448,0.0
52633.0,STARLINK-3994,PAYLOAD,2022-10-24 07:12:55,15.08845335,0.0001701,53.2211,41.521,54.087,306.028,0.00012246,1.662e-05,0.0,0 STARLINK-3994,1 52633U 22052AM  22297.30064680  .00001662  00000-0  12246-3 0  9992,2 52633  53.2211  41.5210 0001701  54.0870 306.0280 15.08845335 25324,6917.864000000001,95.437,540.906,538.552,0.0
52633.0,STARLINK-3994,PAYLOAD,2022-10-24 10:23:42,15.088363,0.0001764999999999,53.2208,40.9259,50.5792,309.5356,4.8127e-05,4.78e-06,0.0,0 STARLINK-3994,1 52633U 22052AM  22297.43313506  .00000478  00000-0  48127-4 0  9992,2 52633  53.2208  40.9259 0001765  50.5792 309.5356 15.08836300 24974,6917.892,95.438,540.9780000000002,538.536,0.0
52633.0,STARLINK-3994,PAYLOAD,2022-10-24 16:45:17,15.08809808,0.0001654,53.2224,39.7363,55.807,304.3079,-0.00021085,-3.639e-05,0.0,0 STARLINK-3994,1 52633U 22052AM  22297.69812226 -.00003639  00000-0 -21085-3 0  9990,2 52633  53.2224  39.7363 0001654  55.8070 304.3079 15.08809808 25382,6917.973000000001,95.439,540.982,538.693,0.0
52633.0,STARLINK-3994,PAYLOAD,2022-10-25 10:14:31,15.08824837,0.000197,53.2214,36.4697,38.2522,321.8609,-0.00010057,-1.888e-05,0.0,0 STARLINK-3994,1 52633U 22052AM  22298.42675611 -.00001888  00000-0 -10057-3 0  9998,2 52633  53.2214  36.4697 0001970  38.2522 321.8609 15.08824837 25497,6917.927,95.439,541.155,538.429,0.0
52633.0,STARLINK-3994,PAYLOAD,2022-10-25 16:36:04,15.0882193,0.0001827,53.2209,35.2773,43.9889,316.1248,-0.00014917,-2.660000000000001e-05,0.0,0 STARLINK-3994,1 52633U 22052AM  22298.69172174 -.00002660  00000-0 -14917-3 0  9991,2 52633  53.2209  35.2773 0001827  43.9889 316.1248 15.08821930 25164,6917.936,95.439,541.065,538.5369999999998,0.0
52633.0,STARLINK-3994,PAYLOAD,2022-10-26 11:40:42,15.08832541,0.0001641999999999,53.2225,31.7088,68.9416,291.1752,0.00014882,2.081e-05,0.0,0 STARLINK-3994,1 52633U 22052AM  22299.48660238  .00002081  00000-0  14882-3 0  9998,2 52633  53.2225  31.7088 0001642  68.9416 291.1752 15.08832541 25656,6917.903,95.438,540.904,538.632,0.0
52633.0,STARLINK-3994,PAYLOAD,2022-10-26 13:16:05,15.08833419,0.0001802,53.2211,31.4111,54.8506,305.2654,0.00012278,1.666e-05,0.0,0 STARLINK-3994,1 52633U 22052AM  22299.55284521  .00001666  00000-0  12278-3 0  9998,2 52633  53.2211  31.4111 0001802  54.8506 305.2654 15.08833419 25290,6917.901,95.438,541.012,538.519,0.0
52633.0,STARLINK-3994,PAYLOAD,2022-10-26 18:02:15,15.08833046,0.0001818,53.2206,30.5185,50.9872,309.1282,0.00022194,3.245e-05,0.0,0 STARLINK-3994,1 52633U 22052AM  22299.75156371  .00003245  00000-0  22194-3 0  9994,2 52633  53.2206  30.5185 0001818  50.9872 309.1282 15.08833046 25325,6917.901999999999,95.438,541.024,538.509,0.0
52633.0,STARLINK-3994,PAYLOAD,2022-10-27 13:06:51,15.08849335,0.0001908,53.2197,26.9527,45.0258,315.0889,0.00036998,5.607e-05,0.0,0 STARLINK-3994,1 52633U 22052AM  22300.54643102  .00005607  00000-0  36998-3 0  9998,2 52633  53.2197  26.9527 0001908  45.0258 315.0889 15.08849335 25446,6917.852,95.437,541.0369999999998,538.3969999999998,0.0
52633.0,STARLINK-3994,PAYLOAD,2022-10-27 16:17:37,15.08854046,0.0001976999999999,53.2207,26.3575,44.2374,315.8776,0.00039651,6.03e-05,0.0,0 STARLINK-3994,1 52633U 22052AM  22300.67890734  .00006030  00000-0  39651-3 0  9997,2 52633  53.2207  26.3575 0001977  44.2374 315.8776 15.08854046 25832,6917.837,95.437,541.07,538.335,0.0
52633.0,STARLINK-3994,PAYLOAD,2022-10-27 22:39:13,15.08735124,0.0002367,53.2207,25.1679,60.7151,299.4078,0.001921,0.0003033,0.0,0 STARLINK-3994,1 52633U 22052AM  22300.94390342  .00030330  00000-0  19210-2 0  9995,2 52633  53.2207  25.1679 0002367  60.7151 299.4078 15.08735124 25875,6918.201,95.444,541.7040000000002,538.428,0.0
52633.0,STARLINK-3994,PAYLOAD,2022-10-28 09:46:52,15.08862071,0.0001863,53.2207,23.0859,48.2764,311.8387,0.00010538,1.39e-05,0.0,0 STARLINK-3994,1 52633U 22052AM  22301.40755177  .00001390  00000-0  10538-3 0  9997,2 52633  53.2207  23.0859 0001863  48.2764 311.8387 15.08862071 25945,6917.813,95.436,540.967,538.389,0.0
52633.0,STARLINK-3994,PAYLOAD,2022-10-28 12:57:39,15.08851042,0.0002052,53.2213,22.4952,49.7894,310.3278,2.2475e-05,7e-07,0.0,0 STARLINK-3994,1 52633U 22052AM  22301.54004097  .00000070  00000-0  22475-4 0  9998,2 52633  53.2213  22.4952 0002052  49.7894 310.3278 15.08851042 25590,6917.847,95.437,541.131,538.2919999999998,0.0
52633.0,STARLINK-3994,PAYLOAD,2022-10-29 09:37:39,15.08857681,0.0002035,53.2202,18.625,44.0188,316.0966,-0.00015103,-2.692e-05,0.0,0 STARLINK-3994,1 52633U 22052AM  22302.40115125 -.00002692  00000-0 -15103-3 0  9992,2 52633  53.2202  18.6250 0002035  44.0188 316.0966 15.08857681 25728,6917.826,95.436,541.099,538.284,0.0
52633.0,STARLINK-3994,PAYLOAD,2022-10-29 17:34:34,15.08856922,0.0001919,53.2214,17.1372,49.9186,310.1974,-6.3582e-05,-1.3e-05,0.0,0 STARLINK-3994,1 52633U 22052AM  22302.73234456 -.00001300  00000-0 -63582-4 0  9997,2 52633  53.2214  17.1372 0001919  49.9186 310.1974 15.08856922 25778,6917.829000000002,95.436,541.021,538.366,0.0
52633.0,STARLINK-3994,PAYLOAD,2022-10-30 11:03:48,15.08850359,0.0001641,53.2213,13.8665,53.1531,306.9612,-9.1049e-05,-1.737e-05,0.0,0 STARLINK-3994,1 52633U 22052AM  22303.46098377 -.00001737  00000-0 -91049-4 0  9991,2 52633  53.2213  13.8665 0001641  53.1531 306.9612 15.08850359 25880,6917.849,95.437,540.849,538.5790000000002,0.0
52633.0,STARLINK-3994,PAYLOAD,2022-10-30 14:14:35,15.08847903,0.0001732,53.2212,13.2726,48.4948,311.6193,-8.2431e-05,-1.6e-05,0.0,0 STARLINK-3994,1 52633U 22052AM  22303.59346458 -.00001600  00000-0 -82431-4 0  9995,2 52633  53.2212  13.2726 0001732  48.4948 311.6193 15.08847903 25902,6917.856,95.437,540.919,538.523,0.0
52633.0,STARLINK-3994,PAYLOAD,2022-10-31 10:54:35,15.08845777,0.0001913,53.2213,9.4077,43.4742,316.6401,8.8639e-05,1.123e-05,0.0,0 STARLINK-3994,1 52633U 22052AM  22304.45457903  .00001123  00000-0  88639-4 0  9993,2 52633  53.2213   9.4077 0001913  43.4742 316.6401 15.08845777 26036,6917.863,95.437,541.0509999999998,538.404,0.0
